SIRION PATHFINDER-2     
1 43759U 18099B   26137.12653280  .00003415  00000+0  19019-3 0  9996
2 43759  97.4274 186.9254 0010019  55.4094 304.8082 15.14242953407929
CORVUS BC4              
1 43767U 18099K   26136.89274509  .00002885  00000+0  17053-3 0  9997
2 43767  97.4089 180.7917 0010052 107.2890 252.9442 15.12219612407676
M2 PATHFINDER           
1 45727U 20037E   26136.65673418  .00001356  00000+0  10127-3 0  9993
2 45727  97.8163 327.5363 0009935 257.6999 102.3114 15.04530356320754
NETSAT-4                
1 46504U 20068U   26137.00258065  .00014468  00000+0  33255-3 0  9993
2 46504  97.8609 142.7654 0007521  79.7395 280.4699 15.42764332310968
NETSAT-3                
1 46505U 20068V   26136.91953067  .00014510  00000+0  34741-3 0  9996
2 46505  97.8658 140.9331 0007533  92.8958 267.3149 15.41534678310869
NETSAT-1                
1 46506U 20068W   26137.22074134  .00009241  00000+0  28481-3 0  9990
2 46506  97.8748 135.9456 0006976 111.0871 249.1117 15.33834060310558
NETSAT-2                
1 46507U 20068X   26136.75856929  .00019665  00000+0  42429-3 0  9997
2 46507  97.8624 142.2898 0006283 102.6822 257.5128 15.44585399310887
GREENCUBE (IO-117)      
1 53109U 22080E   26136.43447080 -.00000003  00000+0  00000+0 0  9990
2 53109  70.1434 309.2922 0008816 296.9744  63.0015  6.42583311 90029
SITRO-AIS 5 (KATYS)     
1 57176U 23091L   26137.18149134  .00008867  00000+0  32000-3 0  9997
2 57176  97.5078 200.8016 0011116 204.0663 156.0059 15.28688217159607
SITRO-AIS 6 (CHIRKIN)   
1 57192U 23091AC  26137.15588819  .00006722  00000+0  26945-3 0  9998
2 57192  97.5085 200.0559 0011254 207.5706 152.4936 15.25298564159553
SITRO-AIS 8 (ANOKHIN)   
1 57193U 23091AD  26137.18598881  .00010171  00000+0  33913-3 0  9998
2 57193  97.5073 202.2721 0010453 199.2934 160.7912 15.31233570159702
SITRO-AIS 7 (FARTUSHNIY)
1 57194U 23091AE  26137.15284110  .00007120  00000+0  28776-3 0  9994
2 57194  97.5082 199.8935 0011077 208.6063 151.4568 15.25003297159542
SITRO-AIS 10 (BURDAEV)  
1 57199U 23091AK  26137.14916608  .00015916  00000+0  43622-3 0  9991
2 57199  97.5097 206.9779 0007413 172.1429 187.9933 15.37359822159999
SITRO-AIS 9 (SHCHUKIN)  
1 57201U 23091AM  26137.16609843  .00013026  00000+0  36281-3 0  9990
2 57201  97.5095 206.7486 0007649 172.7249 187.4107 15.36903033159986
SITRO-AIS 12 (SMIRENNIY)
1 57204U 23091AQ  26137.16251801  .00015612  00000+0  43026-3 0  9998
2 57204  97.5107 207.1928 0007439 166.8365 193.3074 15.37191840160009
SITRO-AIS 11 (SHEFFER)  
1 57208U 23091AU  26137.18420635  .00014334  00000+0  39034-3 0  9991
2 57208  97.5104 207.4429 0007335 166.4163 193.7280 15.37584141160021
SITRO-AIS 25            
1 59066U 24039R   26137.21953318  .00004109  00000+0  31943-3 0  9991
2 59066  95.3920 213.8150 0147390  76.6826 285.0787 14.93287002120102
SITRO-AIS 26            
1 59067U 24039S   26137.21673142  .00003887  00000+0  30372-3 0  9993
2 59067  95.3920 213.7170 0147692  77.2250 284.5434 14.93088798120099
SITRO-AIS 27            
1 59068U 24039T   26137.19558894  .00003255  00000+0  25266-3 0  9992
2 59068  95.3923 213.9600 0146667  75.9749 285.7732 14.93499609120116
SITRO-AIS 28            
1 59071U 24039U   26137.17374588  .00003592  00000+0  27821-3 0  9993
2 59071  95.3927 213.9904 0146741  75.9192 285.8293 14.93536955120115
GRBBETA                 
1 60237U 24128C   26136.02849504  .00002788  00000+0  19903-3 0  9994
2 60237  61.9902 329.0722 0045004 128.0351 232.4817 15.06357396101425
OOV-CUBE (TUBSAT-30)    
1 60240U 24128F   26137.11311564  .00001497  00000+0  12504-3 0  9995
2 60240  61.9947 333.9140 0048496 126.9950 233.5595 15.02602340101441
ROBUSTA-3A (MEDITERRAN*)
1 60243U 24128J   26136.97439120  .00006519  00000+0  39029-3 0  9991
2 60243  61.9865 318.5818 0045563 122.1761 238.3765 15.11148600101709
LASARSAT                
1 62391U 24247Q   26137.20640792  .00020624  00000+0  44383-3 0  9997
2 62391  44.9755  76.0316 0005184 151.5887 208.5285 15.44337844 78528
CROCUBE                 
1 62394U 24247T   26137.11002633  .00028478  00000+0  57686-3 0  9991
2 62394  44.9727  74.3723 0004879 154.0248 206.0887 15.45945015 78530
FORESAIL-1 PRIME        
1 66778U 25276DS  26137.15788823  .00003576  00000+0  17718-3 0  9994
2 66778  97.4209 211.0022 0002217 173.2544 186.8720 15.18393475 25693
KNACKSAT-2              
1 67683U 98067XZ  26137.12337919  .00035405  00000+0  48184-3 0  9998
2 67683  51.6297  90.3820 0012355  84.6004 275.6397 15.57130543 15438
